{
  "type": "FeatureCollection",
  "features": [
    {
      "type": "Feature",
      "properties": {
        "norad_id": 31844,
        "name": "FENGYUN 1C DEB",
        "group": "fengyun-1c-debris",
        "lat": 79.55015499786944,
        "lon": -106.74032947799773,
        "alt_km": 876.47615588389,
        "timestamp": "2025-12-27T16:33:30.506762+00:00",
        "meta_object_name": "FENGYUN 1C DEB",
        "meta_object_id": "1999-025CJJ",
        "meta_epoch": "2025-12-24T05:15:19.053792",
        "meta_mean_motion": 14.19795116,
        "meta_eccentricity": 0.0103164,
        "meta_inclination": 100.3026,
        "meta_ra_of_asc_node": 348.7464,
        "meta_arg_of_pericenter": 319.6225,
        "meta_mean_anomaly": 39.732,
        "meta_ephemeris_type": 0,
        "meta_classification_type": "U",
        "meta_norad_cat_id": 31844,
        "meta_element_set_no": 999,
        "meta_rev_at_epoch": 95495,
        "meta_bstar": 0.00094874151,
        "meta_mean_motion_dot": 2.063e-05,
        "meta_mean_motion_ddot": 0,
        "tle_line1": "1 31844U 99025CJJ 25358.21897053  .00002063  00000+0  94874-3 0  9998",
        "tle_line2": "2 31844 100.3026 348.7464 0103164 319.6225  39.7320 14.19795116954953"
      },
      "geometry": {
        "type": "Point",
        "coordinates": [
          -106.74032947799773,
          79.55015499786944
        ]
      }
    },
    {
      "type": "Feature",
      "properties": {
        "norad_id": 31850,
        "name": "FENGYUN 1C DEB",
        "group": "fengyun-1c-debris",
        "lat": 0.5645869286659182,
        "lon": 48.581592690378685,
        "alt_km": 419.4652328794664,
        "timestamp": "2025-12-27T16:33:30.506772+00:00",
        "meta_object_name": "FENGYUN 1C DEB",
        "meta_object_id": "1999-025CJQ",
        "meta_epoch": "2025-12-14T09:23:04.476192",
        "meta_mean_motion": 15.33433546,
        "meta_eccentricity": 0.00762245,
        "meta_inclination": 98.5734,
        "meta_ra_of_asc_node": 33.2199,
        "meta_arg_of_pericenter": 83.7911,
        "meta_mean_anomaly": 277.2005,
        "meta_ephemeris_type": 0,
        "meta_classification_type": "U",
        "meta_norad_cat_id": 31850,
        "meta_element_set_no": 999,
        "meta_rev_at_epoch": 65854,
        "meta_bstar": 0.0030655456,
        "meta_mean_motion_dot": 0.00109983,
        "meta_mean_motion_ddot": 0,
        "tle_line1": "1 31850U 99025CJQ 25348.39102403  .00109983  00000+0  30655-2 0  9996",
        "tle_line2": "2 31850  98.5734  33.2199 0076224  83.7911 277.2005 15.33433546658540"
      },
      "geometry": {
        "type": "Point",
        "coordinates": [
          48.581592690378685,
          0.5645869286659182
        ]
      }
    },
    {
      "type": "Feature",
      "properties": {
        "norad_id": 31854,
        "name": "FENGYUN 1C DEB",
        "group": "fengyun-1c-debris",
        "lat": -41.34204326768237,
        "lon": 176.59684787849346,
        "alt_km": 917.3503632440306,
        "timestamp": "2025-12-27T16:33:30.506783+00:00",
        "meta_object_name": "FENGYUN 1C DEB",
        "meta_object_id": "1999-025CJU",
        "meta_epoch": "2025-12-26T06:59:38.548032",
        "meta_mean_motion": 14.03097648,
        "meta_eccentricity": 0.0072449,
        "meta_inclination": 98.8487,
        "meta_ra_of_asc_node": 3.1147,
        "meta_arg_of_pericenter": 103.5638,
        "meta_mean_anomaly": 257.3612,
        "meta_ephemeris_type": 0,
        "meta_classification_type": "U",
        "meta_norad_cat_id": 31854,
        "meta_element_set_no": 999,
        "meta_rev_at_epoch": 69462,
        "meta_bstar": 0.00052924,
        "meta_mean_motion_dot": 8e-06,
        "meta_mean_motion_ddot": 0,
        "tle_line1": "1 31854U 99025CJU 25360.29141838  .00000800  00000+0  52924-3 0  9990",
        "tle_line2": "2 31854  98.8487   3.1147 0072449 103.5638 257.3612 14.03097648694620"
      },
      "geometry": {
        "type": "Point",
        "coordinates": [
          176.59684787849346,
          -41.34204326768237
        ]
      }
    },
    {
      "type": "Feature",
      "properties": {
        "norad_id": 31857,
        "name": "FENGYUN 1C DEB",
        "group": "fengyun-1c-debris",
        "lat": -65.1019932358004,
        "lon": 39.34858269655581,
        "alt_km": 895.6583399738538,
        "timestamp": "2025-12-27T16:33:30.506793+00:00",
        "meta_object_name": "FENGYUN 1C DEB",
        "meta_object_id": "1999-025CJX",
        "meta_epoch": "2025-12-21T19:49:30.664704",
        "meta_mean_motion": 13.61956441,
        "meta_eccentricity": 0.03096802,
        "meta_inclination": 96.1878,
        "meta_ra_of_asc_node": 22.0982,
        "meta_arg_of_pericenter": 256.7702,
        "meta_mean_anomaly": 99.8737,
        "meta_ephemeris_type": 0,
        "meta_classification_type": "U",
        "meta_norad_cat_id": 31857,
        "meta_element_set_no": 999,
        "meta_rev_at_epoch": 61753,
        "meta_bstar": 0.0014310612,
        "meta_mean_motion_dot": 1.495e-05,
        "meta_mean_motion_ddot": 0,
        "tle_line1": "1 31857U 99025CJX 25355.82604936  .00001495  00000+0  14311-2 0  9997",
        "tle_line2": "2 31857  96.1878  22.0982 0309680 256.7702  99.8737 13.61956441617538"
      },
      "geometry": {
        "type": "Point",
        "coordinates": [
          39.34858269655581,
          -65.1019932358004
        ]
      }
    },
    {
      "type": "Feature",
      "properties": {
        "norad_id": 31861,
        "name": "FENGYUN 1C DEB",
        "group": "fengyun-1c-debris",
        "lat": 4.200645567207972,
        "lon": -163.62919166112678,
        "alt_km": 1509.2155185498295,
        "timestamp": "2025-12-27T16:33:30.506803+00:00",
        "meta_object_name": "FENGYUN 1C DEB",
        "meta_object_id": "1999-025CKB",
        "meta_epoch": "2025-12-22T08:23:07.626048",
        "meta_mean_motion": 13.30350862,
        "meta_eccentricity": 0.04925861,
        "meta_inclination": 102.3403,
        "meta_ra_of_asc_node": 190.8894,
        "meta_arg_of_pericenter": 184.0314,
        "meta_mean_anomaly": 175.6758,
        "meta_ephemeris_type": 0,
        "meta_classification_type": "U",
        "meta_norad_cat_id": 31861,
        "meta_element_set_no": 999,
        "meta_rev_at_epoch": 66895,
        "meta_bstar": 0.0023684948,
        "meta_mean_motion_dot": 2.121e-05,
        "meta_mean_motion_ddot": 0,
        "tle_line1": "1 31861U 99025CKB 25356.34939382  .00002121  00000+0  23685-2 0  9997",
        "tle_line2": "2 31861 102.3403 190.8894 0492586 184.0314 175.6758 13.30350862668952"
      },
      "geometry": {
        "type": "Point",
        "coordinates": [
          -163.62919166112678,
          4.200645567207972
        ]
      }
    },
    {
      "type": "Feature",
      "properties": {
        "norad_id": 31877,
        "name": "FENGYUN 1C DEB",
        "group": "fengyun-1c-debris",
        "lat": 31.020919531881212,
        "lon": 68.81782111961505,
        "alt_km": 627.5163630441375,
        "timestamp": "2025-12-27T16:33:30.506812+00:00",
        "meta_object_name": "FENGYUN 1C DEB",
        "meta_object_id": "1999-025CKC",
        "meta_epoch": "2025-12-24T10:03:54.085536",
        "meta_mean_motion": 15.0179485,
        "meta_eccentricity": 0.010385,
        "meta_inclination": 99.005,
        "meta_ra_of_asc_node": 70.4985,
        "meta_arg_of_pericenter": 240.85,
        "meta_mean_anomaly": 118.2297,
        "meta_ephemeris_type": 0,
        "meta_classification_type": "U",
        "meta_norad_cat_id": 31877,
        "meta_element_set_no": 999,
        "meta_rev_at_epoch": 99217,
        "meta_bstar": 0.0010130212,
        "meta_mean_motion_dot": 0.00014768,
        "meta_mean_motion_ddot": 0,
        "tle_line1": "1 31877U 99025CKC 25358.41937599  .00014768  00000+0  10130-2 0  9993",
        "tle_line2": "2 31877  99.0050  70.4985 0103850 240.8500 118.2297 15.01794850992178"
      },
      "geometry": {
        "type": "Point",
        "coordinates": [
          68.81782111961505,
          31.020919531881212
        ]
      }
    },
    {
      "type": "Feature",
      "properties": {
        "norad_id": 31878,
        "name": "FENGYUN 1C DEB",
        "group": "fengyun-1c-debris",
        "lat": 50.96315486018167,
        "lon": 119.85577488540196,
        "alt_km": 578.6204109210139,
        "timestamp": "2025-12-27T16:33:30.506822+00:00",
        "meta_object_name": "FENGYUN 1C DEB",
        "meta_object_id": "1999-025CKD",
        "meta_epoch": "2025-12-21T12:55:43.069152",
        "meta_mean_motion": 14.86026303,
        "meta_eccentricity": 0.0083415,
        "meta_inclination": 99.4418,
        "meta_ra_of_asc_node": 280.7207,
        "meta_arg_of_pericenter": 210.3879,
        "meta_mean_anomaly": 149.2482,
        "meta_ephemeris_type": 0,
        "meta_classification_type": "U",
        "meta_norad_cat_id": 31878,
        "meta_element_set_no": 999,
        "meta_rev_at_epoch": 98224,
        "meta_bstar": 0.00093453,
        "meta_mean_motion_dot": 8.633e-05,
        "meta_mean_motion_ddot": 0,
        "tle_line1": "1 31878U 99025CKD 25355.53869293  .00008633  00000+0  93453-3 0  9993",
        "tle_line2": "2 31878  99.4418 280.7207 0083415 210.3879 149.2482 14.86026303982249"
      },
      "geometry": {
        "type": "Point",
        "coordinates": [
          119.85577488540196,
          50.96315486018167
        ]
      }
    }
  ]
}